NORAD_CAT_ID,OBJECT_NAME,OBJECT_TYPE,EPOCH,MEAN_MOTION,ECCENTRICITY,INCLINATION,RA_OF_ASC_NODE,ARG_OF_PERICENTER,MEAN_ANOMALY,BSTAR,MEAN_MOTION_DOT,MEAN_MOTION_DDOT,TLE_LINE0,TLE_LINE1,TLE_LINE2,SEMIMAJOR_AXIS,PERIOD,APOGEE,PERIGEE,DECAYED
53001.0,STARLINK-4190,PAYLOAD,2022-08-05 22:00:00,15.73187317,0.0002591,53.2189,234.24,13.2688,286.6313,0.00026738,0.00037053,0.0,0 STARLINK-4190,1 53001U 22076R   22217.91667824  .00037053  00000-0  26738-3 0  9990,2 53001  53.2189 234.2400 0002591  13.2688 286.6313 15.73187317  1305,6727.931,91.534,351.54,348.05300000000005,0.0
53001.0,STARLINK-4190,PAYLOAD,2022-08-06 14:00:01,15.7318499,0.0002969,53.2187,230.9432,18.0875,99.6532,0.00021108,0.0002908999999999,0.0,0 STARLINK-4190,1 53001U 22076R   22218.58334491  .00029090  00000-0  21108-3 0  9993,2 53001  53.2187 230.9432 0002969  18.0875  99.6532 15.73184990  5225,6727.938,91.534,351.8,347.805,0.0
53001.0,STARLINK-4190,PAYLOAD,2022-08-06 22:00:00,15.73206375,0.0002666,53.2186,229.292,18.6027,188.0649,-0.00016719,-0.0002403,0.0,0 STARLINK-4190,1 53001U 22076R   22218.91667824 -.00024030  00000-0 -16719-3 0  9992,2 53001  53.2186 229.2920 0002666  18.6027 188.0649 15.73206375  1305,6727.877,91.533,351.536,347.9480000000001,0.0
53001.0,STARLINK-4190,PAYLOAD,2022-08-07 14:00:01,15.73194912,0.0002928999999999,53.2181,225.9954,16.1001,8.3896,0.00016776,0.00022985,0.0,0 STARLINK-4190,1 53001U 22076R   22219.58334491  .00022985  00000-0  16776-3 0  9995,2 53001  53.2181 225.9954 0002929  16.1001   8.3896 15.73194912  5380,6727.91,91.533,351.745,347.80400000000014,0.0
53001.0,STARLINK-4190,PAYLOAD,2022-08-07 22:00:00,15.73219277,0.0002711,53.2184,224.3441,20.9707,92.4625,0.00014092,0.00019219,0.0,0 STARLINK-4190,1 53001U 22076R   22219.91667824  .00019219  00000-0  14092-3 0  9996,2 53001  53.2184 224.3441 0002711  20.9707  92.4625 15.73219277  1306,6727.84,91.532,351.529,347.881,0.0
53001.0,STARLINK-4190,PAYLOAD,2022-08-08 14:00:01,15.73283835,0.0002965,53.2181,221.0467,21.4756,269.9746,-0.00017196,-0.00024778,0.0,0 STARLINK-4190,1 53001U 22076R   22220.58335648 -.00024778  00000-0 -17196-3 0  9993,2 53001  53.2181 221.0467 0002965  21.4756 269.9746 15.73283835  5542,6727.656,91.528,351.516,347.526,0.0
53001.0,STARLINK-4190,PAYLOAD,2022-08-08 17:20:25,15.73264276,0.0002671,53.219,220.3564,33.7591,326.3599,0.00029807,0.00041538,0.0,0 STARLINK-4190,1 53001U 22076R   22220.72252302  .00041538  00000-0  29807-3 0  9997,2 53001  53.2190 220.3564 0002671  33.7591 326.3599 15.73264276  5563,6727.712,91.529,351.374,347.78,0.0
53001.0,STARLINK-4190,PAYLOAD,2022-08-08 22:00:00,15.73258348,0.0002628,53.218,219.3956,19.7766,0.64,-0.00038947,-0.00055072,0.0,0 STARLINK-4190,1 53001U 22076R   22220.91667824 -.00055072  00000-0 -38947-3 0  9992,2 53001  53.2180 219.3956 0002628  19.7766   0.6400 15.73258348  1309,6727.729,91.53,351.362,347.826,0.0
53001.0,STARLINK-4190,PAYLOAD,2022-08-09 06:00:00,15.73200448,0.0002793999999999,53.2177,217.7481,15.0001,94.3804,-0.00054675,-0.00076678,0.0,0 STARLINK-4190,1 53001U 22076R   22221.25001157 -.00076678  00000-0 -54675-3 0  9992,2 53001  53.2177 217.7481 0002794  15.0001  94.3804 15.73200448  5642,6727.894,91.533,351.639,347.879,0.0
53001.0,STARLINK-4190,PAYLOAD,2022-08-09 14:00:01,15.73145214,0.0002818,53.2175,216.0985,15.0489,183.2208,-8.4399e-05,-0.00012424,0.0,0 STARLINK-4190,1 53001U 22076R   22221.58334491 -.00012424  00000-0 -84399-4 0  9994,2 53001  53.2175 216.0985 0002818  15.0489 183.2208 15.73145214  1302,6728.051,91.536,351.81199999999984,348.02,0.0
53001.0,STARLINK-4190,PAYLOAD,2022-08-09 22:00:00,15.73106051,0.0002583,53.2177,214.4474,16.6696,270.4591,0.00019942,0.00027348,0.0,0 STARLINK-4190,1 53001U 22076R   22221.91667824  .00027348  00000-0  19942-3 0  9990,2 53001  53.2177 214.4474 0002583  16.6696 270.4591 15.73106051  5758,6728.163000000001,91.539,351.766,348.29,0.0
53001.0,STARLINK-4190,PAYLOAD,2022-08-10 14:00:01,15.73167128,0.0002844,53.2177,211.1504,15.1047,89.6993,8.1301e-05,0.00010788,0.0,0 STARLINK-4190,1 53001U 22076R   22222.58334491  .00010788  00000-0  81301-4 0  9994,2 53001  53.2177 211.1504 0002844  15.1047  89.6993 15.73167128  1305,6727.989000000001,91.535,351.767,347.94,0.0
53001.0,STARLINK-4190,PAYLOAD,2022-08-10 20:00:01,15.73141607,0.0002658999999999,53.2175,209.9031,17.2431,64.2525,0.0012095,0.0017223,0.0,0 STARLINK-4190,1 53001U 22076R   22222.83334491  .00172230  00000-0  12095-2 0  9995,2 53001  53.2175 209.9031 0002659  17.2431  64.2525 15.73141607  5899,6728.062,91.537,351.716,348.13800000000015,0.0
53001.0,STARLINK-4190,PAYLOAD,2022-08-10 22:00:00,15.73212054,0.0002598,53.2173,209.4891,18.4567,175.2497,0.00038724,0.0005411,0.0,0 STARLINK-4190,1 53001U 22076R   22222.91667824  .00054110  00000-0  38724-3 0  9997,2 53001  53.2173 209.4891 0002598  18.4567 175.2497 15.73212054  1309,6727.861,91.532,351.474,347.978,0.0
53001.0,STARLINK-4190,PAYLOAD,2022-08-11 06:00:02,15.73212196,0.0002863999999999,53.2176,207.8523,18.1525,264.5378,0.0001783,0.00024491,0.0,0 STARLINK-4190,1 53001U 22076R   22223.25002315  .00024491  00000-0  17830-3 0  9997,2 53001  53.2176 207.8523 0002864  18.1525 264.5378 15.73212196  5966,6727.86,91.532,351.652,347.7990000000001,0.0
53001.0,STARLINK-4190,PAYLOAD,2022-08-11 14:00:01,15.73272413,0.0002795,53.2175,206.2022,16.2381,355.3387,-0.00015993,-0.00023081,0.0,0 STARLINK-4190,1 53001U 22076R   22223.58334491 -.00023081  00000-0 -15993-3 0  9990,2 53001  53.2175 206.2022 0002795  16.2381 355.3387 15.73272413  1305,6727.689,91.529,351.434,347.673,0.0
53001.0,STARLINK-4190,PAYLOAD,2022-08-12 14:00:01,15.73273133,0.0002697,53.2181,201.2533,11.1578,267.3669,-0.00045091,-0.00063638,0.0,0 STARLINK-4190,1 53001U 22076R   22224.58334491 -.00063638  00000-0 -45091-3 0  9995,2 53001  53.2181 201.2533 0002697  11.1578 267.3669 15.73273133  6172,6727.687,91.529,351.366,347.737,0.0
53001.0,STARLINK-4190,PAYLOAD,2022-08-12 22:00:01,15.73219797,0.0002562,53.218,199.602,15.1507,352.4195,-2.7153e-05,-4.435e-05,0.0,0 STARLINK-4190,1 53001U 22076R   22224.91668981 -.00004435  00000-0 -27153-4 0  9996,2 53001  53.2180 199.6020 0002562  15.1507 352.4195 15.73219797  1305,6727.839,91.532,351.427,347.98,0.0
53001.0,STARLINK-4190,PAYLOAD,2022-08-13 06:00:02,15.73365073,0.000298,53.218,197.9476,12.6493,83.8359,-0.0043279,-0.00572754,0.0,0 STARLINK-4190,1 53001U 22076R   22225.25002315 -.00572754  00000-0 -43279-2 0  9996,2 53001  53.2180 197.9476 0002980  12.6493  83.8359 15.73365073  6278,6727.425,91.524,351.2940000000001,347.285,0.0
53001.0,STARLINK-4190,PAYLOAD,2022-08-13 14:00:01,15.73042356,0.00026,53.2171,196.2916,17.295,167.9964,-0.004918,-0.0063688,0.0,0 STARLINK-4190,1 53001U 22076R   22225.58334491 -.00636880  00000-0 -49180-2 0  9993,2 53001  53.2171 196.2916 0002600  17.2950 167.9964 15.73042356  1308,6728.345,91.542,351.959,348.46,0.0
53001.0,STARLINK-4190,PAYLOAD,2022-08-13 22:00:00,15.72587957,0.0002342,53.2174,194.6393,17.4339,256.3435,-0.0085631,-0.01053878,0.0,0 STARLINK-4190,1 53001U 22076R   22225.91667824 -.01053878  00000-0 -85631-2 0  9991,2 53001  53.2174 194.6393 0002342  17.4339 256.3435 15.72587957  1304,6729.641,91.569,353.082,349.93,0.0
53001.0,STARLINK-4190,PAYLOAD,2022-08-14 14:00:01,15.71070664,0.0002803,53.2175,191.3501,5.7243,82.5926,-0.0091627,-0.01056841,0.0,0 STARLINK-4190,1 53001U 22076R   22226.58334491 -.01056841  00000-0 -91627-2 0  9991,2 53001  53.2175 191.3501 0002803   5.7243  82.5926 15.71070664  1301,6733.973000000001,91.657,357.725,353.95,0.0
53001.0,STARLINK-4190,PAYLOAD,2022-08-14 22:00:00,15.70309393,0.0002998999999999,53.2177,189.7071,5.2717,168.947,-0.0094228,-0.01052965,0.0,0 STARLINK-4190,1 53001U 22076R   22226.91667824 -.01052965  00000-0 -94228-2 0  9990,2 53001  53.2177 189.7071 0002999   5.2717 168.9470 15.70309393  1309,6736.149,91.702,360.034,355.994,0.0
53001.0,STARLINK-4190,PAYLOAD,2022-08-15 00:00:00,15.70128967,0.0004932,53.2176,189.2992,267.6464,17.8967,-0.0095648,-0.01060982,0.0,0 STARLINK-4190,1 53001U 22076R   22227.00001157 -.01060982  00000-0 -95648-2 0  9997,2 53001  53.2176 189.2992 0004932 267.6464  17.8967 15.70128967  6558,6736.665,91.712,361.853,355.208,0.0
53001.0,STARLINK-4190,PAYLOAD,2022-08-15 14:00:01,15.68782862,0.0001161999999999,53.2174,186.4287,286.3746,56.9107,-0.0099092,-0.01039498,0.0,0 STARLINK-4190,1 53001U 22076R   22227.58334491 -.01039498  00000-0 -99092-2 0  9995,2 53001  53.2174 186.4287 0001162 286.3746  56.9107 15.68782862  1300,6740.518,91.791,363.166,361.6,0.0
53001.0,STARLINK-4190,PAYLOAD,2022-08-15 22:00:00,15.68030343,9.77e-05,53.2175,184.7913,58.4194,8.0274,-0.0103489999999999,-0.01050979,0.0,0 STARLINK-4190,1 53001U 22076R   22227.91667824 -.01050979  00000-0 -10349-1 0  9995,2 53001  53.2175 184.7913 0000977  58.4194   8.0274 15.68030343  1309,6742.675,91.835,365.198,363.881,0.0
53001.0,STARLINK-4190,PAYLOAD,2022-08-16 06:00:02,15.67269791,0.0001307,53.2175,183.1584,63.675,85.0862,-0.010655,-0.01049076,0.0,0 STARLINK-4190,1 53001U 22076R   22228.25002315 -.01049076  00000-0 -10655-1 0  9997,2 53001  53.2175 183.1584 0001307  63.6750  85.0862 15.67269791  6741,6744.856,91.88,367.602,365.839,0.0
53001.0,STARLINK-4190,PAYLOAD,2022-08-16 14:00:01,15.66513687,0.0001167999999999,53.2176,181.5239,89.7321,140.3015,-0.011059,-0.01055006,0.0,0 STARLINK-4190,1 53001U 22076R   22228.58334491 -.01055006  00000-0 -11059-1 0  9995,2 53001  53.2176 181.5239 0001168  89.7321 140.3015 15.66513687  1306,6747.026,91.924,369.679,368.103,0.0
53001.0,STARLINK-4190,PAYLOAD,2022-08-16 22:00:00,15.65751972,0.000108,53.2178,179.8923,85.1321,225.3272,-0.011347,-0.01050052,0.0,0 STARLINK-4190,1 53001U 22076R   22228.91667824 -.01050052  00000-0 -11347-1 0  9997,2 53001  53.2178 179.8923 0001080  85.1321 225.3272 15.65751972  6855,6749.214,91.969,371.8080000000001,370.35,0.0
